{
    "links": {
        "self": "http://www.neowsapp.com/rest/v1/neo/3401427?api_key=iIulBulltgU6a56xZRHN4H3l9WmuAYTsLGpBGhQ2"
    },
    "id": "3401427",
    "neo_reference_id": "3401427",
    "name": "(2008 CJ1)",
    "designation": "2008 CJ1",
    "nasa_jpl_url": "http://ssd.jpl.nasa.gov/sbdb.cgi?sstr=3401427",
    "absolute_magnitude_h": 23.5,
    "estimated_diameter": {
        "kilometers": {
            "estimated_diameter_min": 0.0530340723,
            "estimated_diameter_max": 0.1185877909
        },
        "meters": {
            "estimated_diameter_min": 53.0340723319,
            "estimated_diameter_max": 118.5877908577
        },
        "miles": {
            "estimated_diameter_min": 0.0329538346,
            "estimated_diameter_max": 0.0736870142
        },
        "feet": {
            "estimated_diameter_min": 173.9963058693,
            "estimated_diameter_max": 389.0675677576
        }
    },
    "is_potentially_hazardous_asteroid": false,
    "close_approach_data": [
        {
            "close_approach_date": "2008-01-23",
            "close_approach_date_full": "2008-Jan-23 17:28",
            "epoch_date_close_approach": 1201109280000,
            "relative_velocity": {
                "kilometers_per_second": "12.7585863926",
                "kilometers_per_hour": "45930.9110133614",
                "miles_per_hour": "28539.6819016078"
            },
            "miss_distance": {
                "astronomical": "0.1835532926",
                "lunar": "71.4022308214",
                "kilometers": "27459181.604446762",
                "miles": "17062344.2575868356"
            },
            "orbiting_body": "Earth"
        }
    ],
    "orbital_data": {
        "orbit_id": "6",
        "orbit_determination_date": "2017-04-06 09:04:32",
        "first_observation_date": "2008-02-02",
        "last_observation_date": "2008-02-03",
        "data_arc_in_days": 1,
        "observations_used": 16,
        "orbit_uncertainty": "9",
        "minimum_orbit_intersection": ".183053",
        "jupiter_tisserand_invariant": "4.102",
        "epoch_osculation": "2454499.5",
        "eccentricity": ".3218617109610453",
        "semi_major_axis": "1.669295619978406",
        "inclination": "23.29732570743844",
        "ascending_node_longitude": "129.2997798112781",
        "orbital_period": "787.7679498098438",
        "perihelion_distance": "1.132013275632377",
        "perihelion_argument": "327.333631056517",
        "aphelion_distance": "2.206577964324434",
        "perihelion_time": "2454460.640344219943",
        "mean_anomaly": "17.75837171872426",
        "mean_motion": ".4569873654886557",
        "equinox": "J2000",
        "orbit_class": {
            "orbit_class_type": "AMO",
            "orbit_class_description": "Near-Earth asteroid orbits similar to that of 1221 Amor",
            "orbit_class_range": "1.017 AU < q (perihelion) < 1.3 AU"
        }
    },
    "is_sentry_object": false
}